{
  "type": "FeatureCollection",
  "features": [
    {
      "type": "Feature",
      "properties": {
        "norad_id": 35175,
        "name": "FENGYUN 1C DEB",
        "group": "fengyun-1c-debris",
        "lat": -26.738157145497738,
        "lon": 11.062712071227208,
        "alt_km": 824.9356703162766,
        "timestamp": "2025-12-24T16:52:41.820253+00:00",
        "meta_object_name": "FENGYUN 1C DEB",
        "meta_object_id": "1999-025DNF",
        "meta_epoch": "2025-12-23T07:12:53.905824",
        "meta_mean_motion": 14.21318843,
        "meta_eccentricity": 0.00572726,
        "meta_inclination": 98.5748,
        "meta_ra_of_asc_node": 5.3413,
        "meta_arg_of_pericenter": 249.0345,
        "meta_mean_anomaly": 110.4698,
        "meta_ephemeris_type": 0,
        "meta_classification_type": "U",
        "meta_norad_cat_id": 35175,
        "meta_element_set_no": 999,
        "meta_rev_at_epoch": 61385,
        "meta_bstar": 0.00032095367,
        "meta_mean_motion_dot": 6.69e-06,
        "meta_mean_motion_ddot": 0,
        "tle_line1": "1 35175U 99025DNF 25357.30062391  .00000669  00000+0  32095-3 0  9994",
        "tle_line2": "2 35175  98.5748   5.3413 0057272 249.0345 110.4698 14.21318843613857"
      },
      "geometry": {
        "type": "Point",
        "coordinates": [
          11.062712071227208,
          -26.738157145497738
        ]
      }
    },
    {
      "type": "Feature",
      "properties": {
        "norad_id": 35176,
        "name": "FENGYUN 1C DEB",
        "group": "fengyun-1c-debris",
        "lat": 13.424742638786933,
        "lon": 167.07424568904577,
        "alt_km": 867.9718316556264,
        "timestamp": "2025-12-24T16:52:41.820263+00:00",
        "meta_object_name": "FENGYUN 1C DEB",
        "meta_object_id": "1999-025DNG",
        "meta_epoch": "2025-12-22T18:20:35.359296",
        "meta_mean_motion": 14.17009224,
        "meta_eccentricity": 0.00542532,
        "meta_inclination": 98.5561,
        "meta_ra_of_asc_node": 343.1494,
        "meta_arg_of_pericenter": 28.1676,
        "meta_mean_anomaly": 332.2416,
        "meta_ephemeris_type": 0,
        "meta_classification_type": "U",
        "meta_norad_cat_id": 35176,
        "meta_element_set_no": 999,
        "meta_rev_at_epoch": 91070,
        "meta_bstar": 0.00031421209,
        "meta_mean_motion_dot": 5.99e-06,
        "meta_mean_motion_ddot": 0,
        "tle_line1": "1 35176U 99025DNG 25356.76429814  .00000599  00000+0  31421-3 0  9995",
        "tle_line2": "2 35176  98.5561 343.1494 0054253  28.1676 332.2416 14.17009224910703"
      },
      "geometry": {
        "type": "Point",
        "coordinates": [
          167.07424568904577,
          13.424742638786933
        ]
      }
    },
    {
      "type": "Feature",
      "properties": {
        "norad_id": 35180,
        "name": "FENGYUN 1C DEB",
        "group": "fengyun-1c-debris",
        "lat": -9.129845972158625,
        "lon": -22.182674420721163,
        "alt_km": 1323.6491972831682,
        "timestamp": "2025-12-24T16:52:41.820273+00:00",
        "meta_object_name": "FENGYUN 1C DEB",
        "meta_object_id": "1999-025DNL",
        "meta_epoch": "2025-12-23T17:14:03.437376",
        "meta_mean_motion": 13.74480618,
        "meta_eccentricity": 0.04956689,
        "meta_inclination": 99.7253,
        "meta_ra_of_asc_node": 158.3893,
        "meta_arg_of_pericenter": 349.9072,
        "meta_mean_anomaly": 9.2401,
        "meta_ephemeris_type": 0,
        "meta_classification_type": "U",
        "meta_norad_cat_id": 35180,
        "meta_element_set_no": 999,
        "meta_rev_at_epoch": 185,
        "meta_bstar": 0.0020626755,
        "meta_mean_motion_dot": 4.753e-05,
        "meta_mean_motion_ddot": 0,
        "tle_line1": "1 35180U 99025DNL 25357.71809534  .00004753  00000+0  20627-2 0  9998",
        "tle_line2": "2 35180  99.7253 158.3893 0495668 349.9072   9.2401 13.74480618  1855"
      },
      "geometry": {
        "type": "Point",
        "coordinates": [
          -22.182674420721163,
          -9.129845972158625
        ]
      }
    },
    {
      "type": "Feature",
      "properties": {
        "norad_id": 35191,
        "name": "FENGYUN 1C DEB",
        "group": "fengyun-1c-debris",
        "lat": -70.93912662401323,
        "lon": 132.90121226421437,
        "alt_km": 914.0325845674415,
        "timestamp": "2025-12-24T16:52:41.820283+00:00",
        "meta_object_name": "FENGYUN 1C DEB",
        "meta_object_id": "1999-025DNX",
        "meta_epoch": "2025-12-21T04:49:10.111008",
        "meta_mean_motion": 13.91207392,
        "meta_eccentricity": 0.01025786,
        "meta_inclination": 99.0161,
        "meta_ra_of_asc_node": 336.856,
        "meta_arg_of_pericenter": 185.6565,
        "meta_mean_anomaly": 174.3444,
        "meta_ephemeris_type": 0,
        "meta_classification_type": "U",
        "meta_norad_cat_id": 35191,
        "meta_element_set_no": 999,
        "meta_rev_at_epoch": 88019,
        "meta_bstar": 7.2115022e-05,
        "meta_mean_motion_dot": 5.2e-07,
        "meta_mean_motion_ddot": 0,
        "tle_line1": "1 35191U 99025DNX 25355.20081147  .00000052  00000+0  72115-4 0  9993",
        "tle_line2": "2 35191  99.0161 336.8560 0102578 185.6565 174.3444 13.91207392880197"
      },
      "geometry": {
        "type": "Point",
        "coordinates": [
          132.90121226421437,
          -70.93912662401323
        ]
      }
    },
    {
      "type": "Feature",
      "properties": {
        "norad_id": 35194,
        "name": "FENGYUN 1C DEB",
        "group": "fengyun-1c-debris",
        "lat": -71.13936482857706,
        "lon": -124.49044314401489,
        "alt_km": 765.7117326811876,
        "timestamp": "2025-12-24T16:52:41.820293+00:00",
        "meta_object_name": "FENGYUN 1C DEB",
        "meta_object_id": "1999-025DPA",
        "meta_epoch": "2025-12-12T01:09:46.826496",
        "meta_mean_motion": 14.60293761,
        "meta_eccentricity": 0.01145377,
        "meta_inclination": 98.9481,
        "meta_ra_of_asc_node": 69.3173,
        "meta_arg_of_pericenter": 78.0348,
        "meta_mean_anomaly": 283.3663,
        "meta_ephemeris_type": 0,
        "meta_classification_type": "U",
        "meta_norad_cat_id": 35194,
        "meta_element_set_no": 999,
        "meta_rev_at_epoch": 65380,
        "meta_bstar": 0.0013884757,
        "meta_mean_motion_dot": 7.302e-05,
        "meta_mean_motion_ddot": 0,
        "tle_line1": "1 35194U 99025DPA 25346.04845864  .00007302  00000+0  13885-2 0  9994",
        "tle_line2": "2 35194  98.9481  69.3173 0114537  78.0348 283.3663 14.60293761653805"
      },
      "geometry": {
        "type": "Point",
        "coordinates": [
          -124.49044314401489,
          -71.13936482857706
        ]
      }
    },
    {
      "type": "Feature",
      "properties": {
        "norad_id": 35195,
        "name": "FENGYUN 1C DEB",
        "group": "fengyun-1c-debris",
        "lat": 73.19795756330386,
        "lon": 62.347682037880965,
        "alt_km": 645.2222124064947,
        "timestamp": "2025-12-24T16:52:41.820303+00:00",
        "meta_object_name": "FENGYUN 1C DEB",
        "meta_object_id": "1999-025DPB",
        "meta_epoch": "2025-12-22T00:13:11.050752",
        "meta_mean_motion": 14.56075871,
        "meta_eccentricity": 0.01032816,
        "meta_inclination": 98.9839,
        "meta_ra_of_asc_node": 91.0439,
        "meta_arg_of_pericenter": 40.5649,
        "meta_mean_anomaly": 320.3184,
        "meta_ephemeris_type": 0,
        "meta_classification_type": "U",
        "meta_norad_cat_id": 35195,
        "meta_element_set_no": 999,
        "meta_rev_at_epoch": 91061,
        "meta_bstar": 0.00065824609,
        "meta_mean_motion_dot": 3.061e-05,
        "meta_mean_motion_ddot": 0,
        "tle_line1": "1 35195U 99025DPB 25356.00915568  .00003061  00000+0  65825-3 0  9991",
        "tle_line2": "2 35195  98.9839  91.0439 0103281  40.5649 320.3184 14.56075871910612"
      },
      "geometry": {
        "type": "Point",
        "coordinates": [
          62.347682037880965,
          73.19795756330386
        ]
      }
    },
    {
      "type": "Feature",
      "properties": {
        "norad_id": 35196,
        "name": "FENGYUN 1C DEB",
        "group": "fengyun-1c-debris",
        "lat": 78.29986315307629,
        "lon": -33.02366153573202,
        "alt_km": 932.2925040237496,
        "timestamp": "2025-12-24T16:52:41.820313+00:00",
        "meta_object_name": "FENGYUN 1C DEB",
        "meta_object_id": "1999-025DPC",
        "meta_epoch": "2025-12-23T00:02:17.953152",
        "meta_mean_motion": 14.19827726,
        "meta_eccentricity": 0.02139085,
        "meta_inclination": 98.5351,
        "meta_ra_of_asc_node": 11.8154,
        "meta_arg_of_pericenter": 308.5465,
        "meta_mean_anomaly": 78.8438,
        "meta_ephemeris_type": 0,
        "meta_classification_type": "U",
        "meta_norad_cat_id": 35196,
        "meta_element_set_no": 999,
        "meta_rev_at_epoch": 89280,
        "meta_bstar": 0.00080318519,
        "meta_mean_motion_dot": 2.095e-05,
        "meta_mean_motion_ddot": 0,
        "tle_line1": "1 35196U 99025DPC 25357.00159668  .00002095  00000+0  80319-3 0  9995",
        "tle_line2": "2 35196  98.5351  11.8154 0213908 308.5465  78.8438 14.19827726892803"
      },
      "geometry": {
        "type": "Point",
        "coordinates": [
          -33.02366153573202,
          78.29986315307629
        ]
      }
    }
  ]
}